[{"OBJECT_NAME":"CUTE-1.7+APD II (CO-65)","OBJECT_ID":"2008-021C","EPOCH":"2025-01-10T11:44:25.701504","MEAN_MOTION":15.0150639,"ECCENTRICITY":0.001029,"INCLINATION":97.7683,"RA_OF_ASC_NODE":341.0351,"ARG_OF_PERICENTER":22.0242,"MEAN_ANOMALY":338.1422,"EPHEMERIS_TYPE":0,"CLASSIFICATION_TYPE":"U","NORAD_CAT_ID":32785,"ELEMENT_SET_NO":999,"REV_AT_EPOCH":90660,"BSTAR":0.00055886,"MEAN_MOTION_DOT":7.179e-5,"MEAN_MOTION_DDOT":0},{"OBJECT_NAME":"SEEDS II (CO-66)","OBJECT_ID":"2008-021J","EPOCH":"2025-01-10T09:28:10.120512","MEAN_MOTION":15.12505459,"ECCENTRICITY":0.0003907,"INCLINATION":97.7134,"RA_OF_ASC_NODE":347.9008,"ARG_OF_PERICENTER":356.4002,"MEAN_ANOMALY":3.7199,"EPHEMERIS_TYPE":0,"CLASSIFICATION_TYPE":"U","NORAD_CAT_ID":32791,"ELEMENT_SET_NO":999,"REV_AT_EPOCH":90774,"BSTAR":0.00088305,"MEAN_MOTION_DOT":0.00015332,"MEAN_MOTION_DDOT":0},{"OBJECT_NAME":"YUBILEINY (RS-30)","OBJECT_ID":"2008-025A","EPOCH":"2025-01-10T13:11:13.033824","MEAN_MOTION":12.43156976,"ECCENTRICITY":0.0020125,"INCLINATION":82.5055,"RA_OF_ASC_NODE":320.5054,"ARG_OF_PERICENTER":15.6018,"MEAN_ANOMALY":344.5678,"EPHEMERIS_TYPE":0,"CLASSIFICATION_TYPE":"U","NORAD_CAT_ID":32953,"ELEMENT_SET_NO":999,"REV_AT_EPOCH":75475,"BSTAR":0.00010158,"MEAN_MOTION_DOT":2.4e-7,"MEAN_MOTION_DDOT":0},{"OBJECT_NAME":"KKS-1 (KISEKI)","OBJECT_ID":"2009-002H","EPOCH":"2025-01-10T11:39:54.654336","MEAN_MOTION":14.8064948,"ECCENTRICITY":0.0008151,"INCLINATION":98.1281,"RA_OF_ASC_NODE":280.5547,"ARG_OF_PERICENTER":172.3105,"MEAN_ANOMALY":187.8233,"EPHEMERIS_TYPE":0,"CLASSIFICATION_TYPE":"U","NORAD_CAT_ID":33499,"ELEMENT_SET_NO":999,"REV_AT_EPOCH":85877,"BSTAR":0.0003594,"MEAN_MOTION_DOT":2.708e-5,"MEAN_MOTION_DDOT":0},{"OBJECT_NAME":"SWISSCUBE","OBJECT_ID":"2009-051B","EPOCH":"2025-01-10T05:37:46.914528","MEAN_MOTION":14.60583177,"ECCENTRICITY":0.0008062,"INCLINATION":98.4474,"RA_OF_ASC_NODE":263.5793,"ARG_OF_PERICENTER":43.9756,"MEAN_ANOMALY":316.2083,"EPHEMERIS_TYPE":0,"CLASSIFICATION_TYPE":"U","NORAD_CAT_ID":35932,"ELEMENT_SET_NO":999,"REV_AT_EPOCH":81276,"BSTAR":0.00043369,"MEAN_MOTION_DOT":2.06e-5,"MEAN_MOTION_DDOT":0},{"OBJECT_NAME":"BEESAT-1","OBJECT_ID":"2009-051C","EPOCH":"2025-01-10T10:16:01.719552","MEAN_MOTION":14.60109457,"ECCENTRICITY":0.0006567,"INCLINATION":98.4404,"RA_OF_ASC_NODE":264.3865,"ARG_OF_PERICENTER":56.2182,"MEAN_ANOMALY":303.9642,"EPHEMERIS_TYPE":0,"CLASSIFICATION_TYPE":"U","NORAD_CAT_ID":35933,"ELEMENT_SET_NO":999,"REV_AT_EPOCH":81285,"BSTAR":0.00037635,"MEAN_MOTION_DOT":1.762e-5,"MEAN_MOTION_DDOT":0},{"OBJECT_NAME":"ITUPSAT1","OBJECT_ID":"2009-051E","EPOCH":"2025-01-10T06:06:54.542016","MEAN_MOTION":14.5895821,"ECCENTRICITY":0.0008864,"INCLINATION":98.4499,"RA_OF_ASC_NODE":263.8677,"ARG_OF_PERICENTER":62.07,"MEAN_ANOMALY":298.1395,"EPHEMERIS_TYPE":0,"CLASSIFICATION_TYPE":"U","NORAD_CAT_ID":35935,"ELEMENT_SET_NO":999,"REV_AT_EPOCH":81244,"BSTAR":0.00035414,"MEAN_MOTION_DOT":1.613e-5,"MEAN_MOTION_DDOT":0},{"OBJECT_NAME":"XIWANG-1 (HOPE-1)","OBJECT_ID":"2009-072B","EPOCH":"2025-01-09T21:50:06.075456","MEAN_MOTION":13.16417086,"ECCENTRICITY":0.0007482,"INCLINATION":100.3274,"RA_OF_ASC_NODE":329.02,"ARG_OF_PERICENTER":354.8785,"MEAN_ANOMALY":5.2251,"EPHEMERIS_TYPE":0,"CLASSIFICATION_TYPE":"U","NORAD_CAT_ID":36122,"ELEMENT_SET_NO":999,"REV_AT_EPOCH":72415,"BSTAR":0.00014649,"MEAN_MOTION_DOT":1.2e-7,"MEAN_MOTION_DDOT":0},{"OBJECT_NAME":"O/OREOS (USA 219)","OBJECT_ID":"2010-062C","EPOCH":"2025-01-10T12:36:47.784384","MEAN_MOTION":14.89974125,"ECCENTRICITY":0.0015935,"INCLINATION":71.9701,"RA_OF_ASC_NODE":181.1966,"ARG_OF_PERICENTER":334.5506,"MEAN_ANOMALY":25.4876,"EPHEMERIS_TYPE":0,"CLASSIFICATION_TYPE":"U","NORAD_CAT_ID":37224,"ELEMENT_SET_NO":999,"REV_AT_EPOCH":3868,"BSTAR":0.0004266,"MEAN_MOTION_DOT":4.064e-5,"MEAN_MOTION_DDOT":0},{"OBJECT_NAME":"JUGNU","OBJECT_ID":"2011-058B","EPOCH":"2025-01-09T23:41:24.213984","MEAN_MOTION":14.13480198,"ECCENTRICITY":0.0018663,"INCLINATION":19.9601,"RA_OF_ASC_NODE":246.4166,"ARG_OF_PERICENTER":59.2598,"MEAN_ANOMALY":69.3603,"EPHEMERIS_TYPE":0,"CLASSIFICATION_TYPE":"U","NORAD_CAT_ID":37839,"ELEMENT_SET_NO":999,"REV_AT_EPOCH":68490,"BSTAR":0.000203,"MEAN_MOTION_DOT":6.54e-6,"MEAN_MOTION_DDOT":0},{"OBJECT_NAME":"SRMSAT","OBJECT_ID":"2011-058D","EPOCH":"2025-01-10T14:12:14.806656","MEAN_MOTION":14.11334491,"ECCENTRICITY":0.0011712,"INCLINATION":19.9736,"RA_OF_ASC_NODE":342.1297,"ARG_OF_PERICENTER":214.3421,"MEAN_ANOMALY":301.9577,"EPHEMERIS_TYPE":0,"CLASSIFICATION_TYPE":"U","NORAD_CAT_ID":37841,"ELEMENT_SET_NO":999,"REV_AT_EPOCH":68389,"BSTAR":0.00016146,"MEAN_MOTION_DOT":5.61e-6,"MEAN_MOTION_DDOT":0},{"OBJECT_NAME":"STRAND-1","OBJECT_ID":"2013-009E","EPOCH":"2025-01-10T02:32:29.359104","MEAN_MOTION":14.36573728,"ECCENTRICITY":0.0008785,"INCLINATION":98.377,"RA_OF_ASC_NODE":198.7749,"ARG_OF_PERICENTER":1.782,"MEAN_ANOMALY":358.3396,"EPHEMERIS_TYPE":0,"CLASSIFICATION_TYPE":"U","NORAD_CAT_ID":39090,"ELEMENT_SET_NO":999,"REV_AT_EPOCH":62194,"BSTAR":0.000244,"MEAN_MOTION_DOT":6.75e-6,"MEAN_MOTION_DDOT":0},{"OBJECT_NAME":"ZACUBE-1 (TSHEPISOSAT)","OBJECT_ID":"2013-066B","EPOCH":"2025-01-10T07:14:00.642912","MEAN_MOTION":14.93921312,"ECCENTRICITY":0.0045859,"INCLINATION":97.7612,"RA_OF_ASC_NODE":328.5817,"ARG_OF_PERICENTER":191.1082,"MEAN_ANOMALY":168.913,"EPHEMERIS_TYPE":0,"CLASSIFICATION_TYPE":"U","NORAD_CAT_ID":39417,"ELEMENT_SET_NO":999,"REV_AT_EPOCH":60245,"BSTAR":0.00062598,"MEAN_MOTION_DOT":6.742e-5,"MEAN_MOTION_DDOT":0},{"OBJECT_NAME":"GOMX-1","OBJECT_ID":"2013-066Q","EPOCH":"2025-01-10T13:55:02.071776","MEAN_MOTION":14.66457025,"ECCENTRICITY":0.0134213,"INCLINATION":97.7026,"RA_OF_ASC_NODE":238.3593,"ARG_OF_PERICENTER":312.628,"MEAN_ANOMALY":46.3671,"EPHEMERIS_TYPE":0,"CLASSIFICATION_TYPE":"U","NORAD_CAT_ID":39430,"ELEMENT_SET_NO":999,"REV_AT_EPOCH":59323,"BSTAR":0.00065441,"MEAN_MOTION_DOT":4.092e-5,"MEAN_MOTION_DDOT":0},{"OBJECT_NAME":"CUBEBUG-2 (LO-74)","OBJECT_ID":"2013-066AA","EPOCH":"2025-01-10T06:28:10.212960","MEAN_MOTION":14.87553448,"ECCENTRICITY":0.0063782,"INCLINATION":97.8344,"RA_OF_ASC_NODE":316.2693,"ARG_OF_PERICENTER":316.7817,"MEAN_ANOMALY":42.8404,"EPHEMERIS_TYPE":0,"CLASSIFICATION_TYPE":"U","NORAD_CAT_ID":39440,"ELEMENT_SET_NO":999,"REV_AT_EPOCH":59907,"BSTAR":0.00081478,"MEAN_MOTION_DOT":7.624e-5,"MEAN_MOTION_DDOT":0},{"OBJECT_NAME":"FUNCUBE-1 (AO-73)","OBJECT_ID":"2013-066AE","EPOCH":"2025-01-09T20:04:17.555520","MEAN_MOTION":14.98314946,"ECCENTRICITY":0.0043315,"INCLINATION":97.7455,"RA_OF_ASC_NODE":331.9838,"ARG_OF_PERICENTER":167.9943,"MEAN_ANOMALY":192.2322,"EPHEMERIS_TYPE":0,"CLASSIFICATION_TYPE":"U","NORAD_CAT_ID":39444,"ELEMENT_SET_NO":999,"REV_AT_EPOCH":60098,"BSTAR":0.0007911,"MEAN_MOTION_DOT":9.547e-5,"MEAN_MOTION_DDOT":0},{"OBJECT_NAME":"UWE-3","OBJECT_ID":"2013-066AG","EPOCH":"2025-01-10T06:55:44.048928","MEAN_MOTION":14.90443796,"ECCENTRICITY":0.0053942,"INCLINATION":97.8064,"RA_OF_ASC_NODE":322.4793,"ARG_OF_PERICENTER":256.8804,"MEAN_ANOMALY":102.639,"EPHEMERIS_TYPE":0,"CLASSIFICATION_TYPE":"U","NORAD_CAT_ID":39446,"ELEMENT_SET_NO":999,"REV_AT_EPOCH":59950,"BSTAR":0.00065611,"MEAN_MOTION_DOT":6.519e-5,"MEAN_MOTION_DDOT":0}]
