CUTE-1.7+APD II (CO-65) 
1 32785U 08021C   25010.48918636  .00007179  00000+0  55886-3 0  9997
2 32785  97.7683 341.0351 0010290  22.0242 338.1422 15.01506390906602
SEEDS II (CO-66)        
1 32791U 08021J   25010.39456158  .00015332  00000+0  88305-3 0  9992
2 32791  97.7134 347.9008 0003907 356.4002   3.7199 15.12505459907748
YUBILEINY (RS-30)       
1 32953U 08025A   25010.54945641  .00000024  00000+0  10158-3 0  9996
2 32953  82.5055 320.5054 0020125  15.6018 344.5678 12.43156976754758
KKS-1 (KISEKI)          
1 33499U 09002H   25010.48604924  .00002708  00000+0  35940-3 0  9994
2 33499  98.1281 280.5547 0008151 172.3105 187.8233 14.80649480858775
SWISSCUBE               
1 35932U 09051B   25010.23457077  .00002060  00000+0  43369-3 0  9995
2 35932  98.4474 263.5793 0008062  43.9756 316.2083 14.60583177812764
BEESAT-1                
1 35933U 09051C   25010.42779768  .00001762  00000+0  37635-3 0  9998
2 35933  98.4404 264.3865 0006567  56.2182 303.9642 14.60109457812854
ITUPSAT1                
1 35935U 09051E   25010.25479794  .00001613  00000+0  35414-3 0  9995
2 35935  98.4499 263.8677 0008864  62.0700 298.1395 14.58958210812449
XIWANG-1 (HOPE-1)       
1 36122U 09072B   25009.90979254  .00000012  00000+0  14649-3 0  9992
2 36122 100.3274 329.0200 0007482 354.8785   5.2251 13.16417086724151
O/OREOS (USA 219)       
1 37224U 10062C   25010.52555306  .00004064  00000+0  42660-3 0  9990
2 37224  71.9701 181.1966 0015935 334.5506  25.4876 14.89974125 38683
JUGNU                   
1 37839U 11058B   25009.98708581  .00000654  00000+0  20300-3 0  9999
2 37839  19.9601 246.4166 0018663  59.2598  69.3603 14.13480198684902
SRMSAT                  
1 37841U 11058D   25010.59183804  .00000561  00000+0  16146-3 0  9996
2 37841  19.9736 342.1297 0011712 214.3421 301.9577 14.11334491683894
STRAND-1                
1 39090U 13009E   25010.10589536  .00000675  00000+0  24400-3 0  9999
2 39090  98.3770 198.7749 0008785   1.7820 358.3396 14.36573728621943
ZACUBE-1 (TSHEPISOSAT)  
1 39417U 13066B   25010.30139633  .00006742  00000+0  62598-3 0  9997
2 39417  97.7612 328.5817 0045859 191.1082 168.9130 14.93921312602455
GOMX-1                  
1 39430U 13066Q   25010.57988509  .00004092  00000+0  65441-3 0  9991
2 39430  97.7026 238.3593 0134213 312.6280  46.3671 14.66457025593230
CUBEBUG-2 (LO-74)       
1 39440U 13066AA  25010.26956265  .00007624  00000+0  81478-3 0  9994
2 39440  97.8344 316.2693 0063782 316.7817  42.8404 14.87553448599077
FUNCUBE-1 (AO-73)       
1 39444U 13066AE  25009.83631430  .00009547  00000+0  79110-3 0  9999
2 39444  97.7455 331.9838 0043315 167.9943 192.2322 14.98314946600986
UWE-3                   
1 39446U 13066AG  25010.28870427  .00006519  00000+0  65611-3 0  9990
2 39446  97.8064 322.4793 0053942 256.8804 102.6390 14.90443796599504
